OBJECT_NAME,OBJECT_ID,EPOCH,MEAN_MOTION,ECCENTRICITY,INCLINATION,RA_OF_ASC_NODE,ARG_OF_PERICENTER,MEAN_ANOMALY,EPHEMERIS_TYPE,CLASSIFICATION_TYPE,NORAD_CAT_ID,ELEMENT_SET_NO,REV_AT_EPOCH,BSTAR,MEAN_MOTION_DOT,MEAN_MOTION_DDOT
BEIDOU-2 G8 (C01),2019-027A,2026-06-18T22:09:51.453216,1.00270233,.00101534,1.6632,74.4969,281.9068,27.7518,0,U,44231,999,2609,0,-.254E-5,0
COSMOS 2534 (758),2019-030A,2026-06-16T03:36:36.198144,2.13102184,.00133893,64.3685,192.6516,275.0852,148.6554,0,U,44299,999,5490,0,.77E-6,0
BEIDOU-3 IGSO-2 (C39),2019-035A,2026-06-18T21:16:55.972416,1.00265889,.00396642,55.2463,158.8478,216.5160,330.6306,0,U,44337,999,2568,0,-.97E-6,0
GPS BIII-2  (PRN 18),2019-056A,2026-06-18T15:34:18.996672,2.00569581,.00622763,55.6361,331.0838,197.6239,165.2029,0,U,44506,999,5010,0,-.89E-6,0
BEIDOU-3 M24 (C46),2019-061A,2026-06-18T07:35:32.523360,1.86229078,.0008331,54.3963,182.6897,358.6257,1.3978,0,U,44542,999,4581,0,.56E-6,0
BEIDOU-3 M23 (C45),2019-061B,2026-06-16T13:20:41.756640,1.86227264,.00056705,54.3947,182.7174,338.0060,193.4228,0,U,44543,999,4578,0,.67E-6,0
EUTELSAT 5 WEST B (EGNOS/PRN 121),2019-067A,2026-06-18T21:27:15.784416,1.00269969,.00030178,0.0627,348.8684,98.9715,136.1233,0,U,44624,999,2445,0,-.49E-6,0
BEIDOU-3 M22 (C44),2019-078A,2026-06-16T13:05:14.505792,1.86227179,.00063479,53.9366,299.8507,50.5966,309.4493,0,U,44793,999,4463,0,-.69E-6,0
BEIDOU-3 M21 (C43),2019-078B,2026-06-18T07:06:24.552864,1.86227678,.0004064,53.9076,299.7502,49.2520,310.7784,0,U,44794,999,4467,0,-.76E-6,0
COSMOS 2544 (759),2019-088A,2026-06-18T10:29:30.688800,2.13102753,.00131277,65.5663,73.6893,258.8621,101.0278,0,U,44850,999,5074,0,-.23E-6,0
BEIDOU-3 M19 (C41),2019-090A,2026-06-18T07:12:53.193024,1.86231158,.0017907,56.5601,62.7540,298.0064,262.3772,0,U,44864,999,4425,0,-.56E-6,0
BEIDOU-3 M20 (C42),2019-090B,2026-06-18T16:12:23.971680,1.86231125,.00156151,56.5620,62.7761,312.2190,228.9431,0,U,44865,999,4424,0,-.58E-6,0
BEIDOU-3 G2 (C60),2020-017A,2026-06-18T23:34:11.250624,1.00271728,.00020282,2.8683,47.3874,33.2073,260.2461,0,U,45344,999,2327,0,-.148E-5,0
COSMOS 2545 (760),2020-018A,2026-06-16T06:51:36.735840,2.13102431,.0008397,64.3556,312.4510,230.0424,129.8687,0,U,45358,999,4864,0,-.55E-6,0
BEIDOU-3 G3 (C61),2020-040A,2026-06-18T23:42:47.925216,1.00265450,.00023581,2.4525,67.4510,336.5337,329.3952,0,U,45807,999,2208,0,-.36E-5,0
GPS BIII-3  (PRN 23),2020-041A,2026-06-14T13:20:43.219392,2.00558471,.00637165,56.6678,29.0455,204.6721,21.4099,0,U,45854,999,4398,0,-.64E-6,0
GALAXY 30 (WAAS/PRN 135),2020-056C,2026-06-18T15:45:02.967840,1.00272111,.00021662,0.0165,349.8313,96.1871,292.1283,0,U,46114,999,2130,0,.3E-6,0
COSMOS 2547 (705K),2020-075A,2026-06-18T08:27:30.032352,2.13100014,.000932,64.5997,192.4366,239.7975,120.1588,0,U,46805,999,4393,0,.57E-6,0
GPS BIII-4  (PRN 14),2020-078A,2026-06-18T20:01:56.987904,2.00564831,.00736066,53.9794,210.7115,207.3113,204.4520,0,U,46826,999,4154,0,.28E-6,0
GPS BIII-5  (PRN 11),2021-054A,2026-06-16T22:59:18.041280,2.00568788,.00253425,55.1744,332.4683,228.5515,94.2637,0,U,48859,999,3674,0,-.87E-6,0
QZS-1R (QZSS/PRN 196),2021-096A,2026-06-18T16:08:44.895840,1.00254899,.07546763,37.4655,79.5604,271.8345,291.5952,0,U,49336,999,1702,0,-.287E-5,0
GSAT0223 (GALILEO 27),2021-116A,2026-06-17T06:52:18.735744,1.70475765,.00015148,57.1604,341.6715,187.4025,353.2654,0,U,49809,999,2818,0,-.89E-6,0
GSAT0224 (GALILEO 28),2021-116B,2026-06-17T23:38:32.037792,1.70475877,.0001177,57.1613,341.6514,159.9709,202.1698,0,U,49810,999,2822,0,-.91E-6,0
COSMOS 2557 (706K),2022-075A,2026-06-18T01:08:20.456736,2.13102015,.0010271,64.2982,314.4552,274.5611,85.3098,0,U,52984,999,3073,0,-.57E-6,0
COSMOS 2559 (707K),2022-130A,2026-06-18T08:04:20.621856,2.13101593,.0012585,64.2705,314.5280,178.2040,181.7898,0,U,54031,999,2871,0,-.58E-6,0
COSMOS 2564 (761),2022-161A,2026-06-18T15:34:22.512288,2.13102010,.00122062,64.7418,192.6633,224.8297,135.1194,0,U,54377,999,2766,0,.56E-6,0
GPS BIII-6  (PRN 28),2023-009A,2026-06-16T14:55:07.086720,2.00571344,.000625,55.1227,148.5411,321.9869,156.3274,0,U,55268,999,2523,0,.44E-6,0
BEIDOU-3 G4 (C62),2023-066A,2026-06-18T23:51:09.623232,1.00273174,.00043873,0.4841,332.0413,179.7829,253.2324,0,U,56564,999,1141,0,-.287E-5,0
NVS-01 (IRNSS-1J),2023-076A,2026-06-18T22:05:36.859200,1.00264064,.00030907,2.1610,244.2649,35.8922,87.8029,0,U,56759,999,1113,0,-.343E-5,0
COSMOS 2569 (703K),2023-114A,2026-06-18T15:52:08.940576,2.13103689,.00106254,65.3029,72.5707,296.8496,63.0808,0,U,57517,999,2229,0,-.26E-6,0
BEIDOU-3 M28 (C50),2023-207A,2026-06-18T08:57:24.639840,1.86229635,.00032493,55.7537,62.2629,347.9613,12.0730,0,U,58654,999,1686,0,-.58E-6,0
